FLOCK 4G-34             
1 62650U 25009AT  26068.73202491  .00013063  00000+0  49338-3 0  9997
2 62650  97.4004 151.0149 0000674 348.8280  11.2944 15.27131464 63729
STARLINK-33881          
1 63779U 25091E   26068.99030342  .00027733  00000+0  10132-2 0  9991
2 63779  43.0080  51.2276 0003460 294.3484  65.7007 15.27586979 48948
